ONEWEB-0461             
1 51649U 22012AD  25058.70396475  .00000466  00000+0  11672-2 0  9997
2 51649  87.9023 100.3790 0001762  96.2411 263.8921 13.17645369151402
ONEWEB-0463             
1 51650U 22012AE  25058.53353292  .00000081  00000+0  17585-3 0  9993
2 51650  87.9026 100.4714 0001875  98.8882 261.2462 13.17646989151163
ONEWEB-0464             
1 51651U 22012AF  25058.47106514 -.00000078  00000+0 -26041-3 0  9995
2 51651  87.8892 130.9053 0002234 101.7109 258.4269 13.10375713147158
ONEWEB-0468             
1 51652U 22012AG  25058.47770704  .00000299  00000+0  81971-3 0  9990
2 51652  87.8890 130.8960 0001952 103.8407 256.2937 13.10375100147139
ONEWEB-0473             
1 51653U 22012AH  25058.23368524 -.00000503  00000+0 -14759-2 0  9997
2 51653  87.8886 130.9476 0001975 107.5357 252.5987 13.10374668147107
ONEWEB-0474             
1 51654U 22012AJ  25058.45445139 -.00000582  00000+0 -17024-2 0  9995
2 51654  87.8876 130.8773 0002126 106.9057 253.2304 13.10372087147121
ONEWEB-0475             
1 51655U 22012AK  25058.54533874  .00000081  00000+0  17441-3 0  9996
2 51655  87.9028 100.4488 0002435 113.9595 246.1792 13.17646509151189
ONEWEB-0490             
1 54113U 22138A   25058.90054016  .00000085  00000+0  18064-3 0  9999
2 54113  87.9176  39.2229 0002059  86.2309 273.9059 13.19723593114278
